NORAD_CAT_ID,OBJECT_NAME,OBJECT_TYPE,EPOCH,MEAN_MOTION,ECCENTRICITY,INCLINATION,RA_OF_ASC_NODE,ARG_OF_PERICENTER,MEAN_ANOMALY,BSTAR,MEAN_MOTION_DOT,MEAN_MOTION_DDOT,TLE_LINE0,TLE_LINE1,TLE_LINE2,SEMIMAJOR_AXIS,PERIOD,APOGEE,PERIGEE,DECAYED
51859.0,STARLINK-3560,PAYLOAD,2024-05-18 13:45:52,15.08854303,0.0001263,53.2172,92.503,92.8805,267.2332,0.00022356,3.273e-05,0.0,0 STARLINK-3560,1 51859U 22022H   24139.57352113  .00003273  00000-0  22356-3 0  9998,2 51859  53.2172  92.5030 0001263  92.8805 267.2332 15.08854303123506,6917.837,95.437,540.575,538.828,0.0
51859.0,STARLINK-3560,PAYLOAD,2024-05-18 20:07:25,15.08837227,0.0002212,53.2171,91.3142,95.0252,265.0993,0.00012846,1.757e-05,0.0,0 STARLINK-3560,1 51859U 22022H   24139.83849374  .00001757  00000-0  12846-3 0  9995,2 51859  53.2171  91.3142 0002212  95.0252 265.0993 15.08837227123541,6917.889,95.438,541.284,538.224,0.0
51859.0,STARLINK-3560,PAYLOAD,2024-05-19 04:04:21,15.08830279,0.0001151,53.2178,89.8256,91.0458,269.0666,5.2242e-05,5.44e-06,0.0,0 STARLINK-3560,1 51859U 22022H   24140.16969802  .00000544  00000-0  52242-4 0  9990,2 51859  53.2178  89.8256 0001151  91.0458 269.0666 15.08830279123597,6917.91,95.438,540.571,538.979,0.0
51859.0,STARLINK-3560,PAYLOAD,2024-05-19 05:39:44,15.08833319,0.0001159,53.2179,89.5276,102.9505,257.1617,8.9087e-05,1.13e-05,0.0,0 STARLINK-3560,1 51859U 22022H   24140.23593646  .00001130  00000-0  89087-4 0  9996,2 51859  53.2179  89.5276 0001159 102.9505 257.1617 15.08833319123604,6917.901,95.438,540.568,538.964,0.0
51859.0,STARLINK-3560,PAYLOAD,2024-05-19 19:58:13,15.08838554,0.0001599,53.2184,86.854,101.0561,259.0611,0.00018848,2.713e-05,0.0,0 STARLINK-3560,1 51859U 22022H   24140.83209721  .00002713  00000-0  18848-3 0  9994,2 51859  53.2184  86.8540 0001599 101.0561 259.0611 15.08838554123694,6917.885,95.438,540.856,538.644,0.0
51859.0,STARLINK-3560,PAYLOAD,2024-05-20 05:30:31,15.08844096,0.0001151,53.2165,85.0676,113.6281,246.4832,0.00026444,3.924e-05,0.0,0 STARLINK-3560,1 51859U 22022H   24141.22953543  .00003924  00000-0  26444-3 0  9992,2 51859  53.2165  85.0676 0001151 113.6281 246.4832 15.08844096123756,6917.868,95.437,540.529,538.937,0.0
51859.0,STARLINK-3560,PAYLOAD,2024-05-21 02:10:32,15.08840574,0.0001284,53.2174,81.2012,120.9221,239.1897,0.00020372,2.956e-05,0.0,0 STARLINK-3560,1 51859U 22022H   24142.09065896  .00002956  00000-0  20372-3 0  9991,2 51859  53.2174  81.2012 0001284 120.9221 239.1897 15.08840574123881,6917.879,95.438,540.632,538.855,0.0
51859.0,STARLINK-3560,PAYLOAD,2024-05-21 05:21:19,15.08839818,0.0001266,53.2174,80.6066,118.9259,241.1861,0.0001684,2.393e-05,0.0,0 STARLINK-3560,1 51859U 22022H   24142.22313932  .00002393  00000-0  16840-3 0  9993,2 51859  53.2174  80.6066 0001266 118.9259 241.1861 15.08839818123907,6917.881,95.438,540.622,538.87,0.0
51859.0,STARLINK-3560,PAYLOAD,2024-05-22 05:12:05,15.08849609,0.0001426,53.2176,76.1458,132.6878,227.4235,0.00024473,3.61e-05,0.0,0 STARLINK-3560,1 51859U 22022H   24143.21673353  .00003610  00000-0  24473-3 0  9993,2 51859  53.2176  76.1458 0001426 132.6878 227.4235 15.08849609124050,6917.851,95.437,540.703,538.73,0.0
51859.0,STARLINK-3560,PAYLOAD,2024-05-23 01:52:07,15.08840048,0.0001193,53.2173,72.2814,99.6957,260.417,7.6308e-05,9.27e-06,0.0,0 STARLINK-3560,1 51859U 22022H   24144.07786009  .00000927  00000-0  76308-4 0  9994,2 51859  53.2173  72.2814 0001193  99.6957 260.4170 15.08840048124188,6917.88,95.438,540.571,538.92,0.0
51859.0,STARLINK-3560,PAYLOAD,2024-05-23 05:02:53,15.08840245,0.0001177,53.2171,71.687,107.3202,252.7919,9.0079e-05,1.146e-05,0.0,0 STARLINK-3560,1 51859U 22022H   24144.21033969  .00001146  00000-0  90079-4 0  9995,2 51859  53.2171  71.6870 0001177 107.3202 252.7919 15.08840245124200,6917.88,95.438,540.559,538.93,0.0
51859.0,STARLINK-3560,PAYLOAD,2024-05-24 04:53:39,15.08849167,0.0001379,53.2177,67.2256,112.0755,248.0383,0.00010511,1.386e-05,0.0,0 STARLINK-3560,1 51859U 22022H   24145.20393485  .00001386  00000-0  10511-3 0  9995,2 51859  53.2177  67.2256 0001379 112.0755 248.0383 15.08849167124356,6917.852,95.437,540.671,538.763,0.0
51859.0,STARLINK-3560,PAYLOAD,2024-05-24 19:12:08,15.08840056,0.0001505,53.218,64.5483,99.1789,260.9374,0.00016235,2.297e-05,0.0,0 STARLINK-3560,1 51859U 22022H   24145.80009975  .00002297  00000-0  16235-3 0  9990,2 51859  53.2180  64.5483 0001505  99.1789 260.9374 15.08840056124446,6917.88,95.438,540.786,538.704,0.0
51859.0,STARLINK-3560,PAYLOAD,2024-05-24 22:22:55,15.08833044,8.1e-05,53.2178,63.9584,113.0023,247.1054,5.8971e-05,6.51e-06,0.0,0 STARLINK-3560,1 51859U 22022H   24145.93258348  .00000651  00000-0  58971-4 0  9990,2 51859  53.2178  63.9584 0000810 113.0023 247.1054 15.08833044124466,6917.902,95.438,540.327,539.206,0.0
51859.0,STARLINK-3560,PAYLOAD,2024-05-25 11:06:00,15.08839855,0.0001387,53.218,61.5806,112.7192,247.3946,8.3652e-05,1.044e-05,0.0,0 STARLINK-3560,1 51859U 22022H   24146.46250091  .00001044  00000-0  83652-4 0  9997,2 51859  53.2180  61.5806 0001387 112.7192 247.3946 15.08839855124540,6917.881,95.438,540.705,538.786,0.0
51859.0,STARLINK-3560,PAYLOAD,2024-05-26 04:35:14,15.08843494,0.0001253,53.2179,58.3094,97.3394,262.774,6.2982e-05,7.15e-06,0.0,0 STARLINK-3560,1 51859U 22022H   24147.19114267  .00000715  00000-0  62982-4 0  9999,2 51859  53.2179  58.3094 0001253  97.3394 262.7740 15.08843494124654,6917.87,95.437,540.602,538.868,0.0
51859.0,STARLINK-3560,PAYLOAD,2024-05-26 22:04:29,15.08834518,0.000126,53.2179,55.0383,99.8128,260.3007,0.00018241,2.616e-05,0.0,0 STARLINK-3560,1 51859U 22022H   24147.91978877  .00002616  00000-0  18241-3 0  9994,2 51859  53.2179  55.0383 0001260  99.8128 260.3007 15.08834518124768,6917.897,95.438,540.634,538.89,0.0
51859.0,STARLINK-3560,PAYLOAD,2024-05-27 12:22:57,15.08843828,0.0001211,53.2181,52.3601,111.0012,249.111,0.00020218,2.932e-05,0.0,0 STARLINK-3560,1 51859U 22022H   24148.51594204  .00002932  00000-0  20218-3 0  9997,2 51859  53.2181  52.3601 0001211 111.0012 249.1110 15.08843828124853,6917.869,95.437,540.571,538.896,0.0
51859.0,STARLINK-3560,PAYLOAD,2024-05-27 13:58:20,15.08850853,0.0001445,53.2174,52.0635,113.181,246.9334,-9.8486e-05,-1.856e-05,0.0,0 STARLINK-3560,1 51859U 22022H   24148.58218072 -.00001856  00000-0 -98486-4 0  9999,2 51859  53.2174  52.0635 0001445 113.1810 246.9334 15.08850853124867,6917.847,95.437,540.712,538.713,0.0
51859.0,STARLINK-3560,PAYLOAD,2024-05-27 20:19:53,15.08833151,0.0001229,53.2175,50.8748,96.1601,263.9531,6.7684e-05,7.89e-06,0.0,0 STARLINK-3560,1 51859U 22022H   24148.84714980  .00000789  00000-0  67684-4 0  9995,2 51859  53.2175  50.8748 0001229  96.1601 263.9531 15.08833151124902,6917.901,95.438,540.617,538.916,0.0
51859.0,STARLINK-3560,PAYLOAD,2024-05-27 21:55:16,15.08835674,0.0001194,53.2176,50.5763,96.8714,263.2414,3.0243e-05,1.93e-06,0.0,0 STARLINK-3560,1 51859U 22022H   24148.91338853  .00000193  00000-0  30243-4 0  9994,2 51859  53.2176  50.5763 0001194  96.8714 263.2414 15.08835674124916,6917.894,95.438,540.585,538.933,0.0
51859.0,STARLINK-3560,PAYLOAD,2024-05-28 12:13:44,15.08845622,0.0001188,53.2184,47.9006,98.7512,261.3614,9.9743e-05,1.3e-05,0.0,0 STARLINK-3560,1 51859U 22022H   24149.50954214  .00001300  00000-0  99743-4 0  9996,2 51859  53.2184  47.9006 0001188  98.7512 261.3614 15.08845622125001,6917.863,95.437,540.55,538.906,0.0
51859.0,STARLINK-3560,PAYLOAD,2024-05-28 13:49:07,15.08842391,0.000116,53.2184,47.6032,96.4286,263.6838,9.0785e-05,1.157e-05,0.0,0 STARLINK-3560,1 51859U 22022H   24149.57578502  .00001157  00000-0  90785-4 0  9992,2 51859  53.2184  47.6032 0001160  96.4286 263.6838 15.08842391125014,6917.873,95.437,540.541,538.936,0.0
51859.0,STARLINK-3560,PAYLOAD,2024-05-28 20:10:40,15.08840089,0.0001176,53.2185,46.414,96.4753,263.6373,1.0367e-05,-1.23e-06,0.0,0 STARLINK-3560,1 51859U 22022H   24149.84074952 -.00000123  00000-0  10367-4 0  9993,2 51859  53.2185  46.4140 0001176  96.4753 263.6373 15.08840089125058,6917.88,95.438,540.559,538.932,0.0
51859.0,STARLINK-3560,PAYLOAD,2024-05-28 21:46:03,15.08841209,0.0001181,53.2185,46.1167,95.2067,264.906,2.1379e-05,5.2e-07,0.0,0 STARLINK-3560,1 51859U 22022H   24149.90698860  .00000052  00000-0  21379-4 0  9995,2 51859  53.2185  46.1167 0001181  95.2067 264.9060 15.08841209125068,6917.877,95.437,540.559,538.925,0.0
51859.0,STARLINK-3560,PAYLOAD,2024-05-29 04:07:35,15.08848986,0.0001192,53.2184,44.9271,95.4556,264.6572,8.675e-05,1.093e-05,0.0,0 STARLINK-3560,1 51859U 22022H   24150.17194233  .00001093  00000-0  86750-4 0  9991,2 51859  53.2184  44.9271 0001192  95.4556 264.6572 15.08848986125105,6917.853,95.437,540.543,538.893,0.0
51859.0,STARLINK-3560,PAYLOAD,2024-05-29 12:04:32,15.0883503,0.0001295,53.2174,43.4406,92.1702,267.9438,0.00044167,6.747e-05,0.0,0 STARLINK-3560,1 51859U 22022H   24150.50315117  .00006747  00000-0  44167-3 0  9990,2 51859  53.2174  43.4406 0001295  92.1702 267.9438 15.08835030125157,6917.896,95.438,540.656,538.865,0.0
51859.0,STARLINK-3560,PAYLOAD,2024-05-29 13:39:54,15.0884442,0.0001224,53.2175,43.143,90.169,269.9443,3.2842e-06,-2.36e-06,0.0,0 STARLINK-3560,1 51859U 22022H   24150.56938398 -.00000236  00000-0  32842-5 0  9995,2 51859  53.2175  43.1430 0001224  90.1690 269.9443 15.08844420125160,6917.867,95.437,540.579,538.885,0.0
51859.0,STARLINK-3560,PAYLOAD,2024-05-29 21:36:49,15.08862324,0.0001234,53.2176,41.6561,85.2777,274.8356,0.0004892,7.511e-05,0.0,0 STARLINK-3560,1 51859U 22022H   24150.90057542  .00007511  00000-0  48920-3 0  9990,2 51859  53.2176  41.6561 0001234  85.2777 274.8356 15.08862324125218,6917.812,95.436,540.531,538.823,0.0
51859.0,STARLINK-3560,PAYLOAD,2024-05-30 13:30:41,15.08833793,0.0001095,53.2176,38.6823,49.3195,310.7892,-0.00011439,-2.108e-05,0.0,0 STARLINK-3560,1 51859U 22022H   24151.56298229 -.00002108  00000-0 -11439-3 0  9996,2 51859  53.2176  38.6823 0001095  49.3195 310.7892 15.08833793125319,6917.899,95.438,540.522,539.007,0.0
